CCSDS_OMM_VERS = 2.0
CREATION_DATE  = 
ORIGINATOR     = 

OBJECT_NAME    = STARLINK-36813
OBJECT_ID      = 2026-035P
CENTER_NAME    = EARTH
REF_FRAME      = TEME
TIME_SYSTEM    = UTC
MEAN_ELEMENT_THEORY = SGP/SGP4

EPOCH          = 2026-03-05T16:00:00.999936
MEAN_MOTION    = 15.97747241
ECCENTRICITY   = .0001219
INCLINATION    = 97.2719
RA_OF_ASC_NODE = 356.7229
ARG_OF_PERICENTER = 93.7679
MEAN_ANOMALY   = 162.6380

EPHEMERIS_TYPE = 0
CLASSIFICATION_TYPE = U
NORAD_CAT_ID   = 67892
ELEMENT_SET_NO = 999
REV_AT_EPOCH   = 311
BSTAR          = -.26475E-2
MEAN_MOTION_DOT = -.1177852E-1
MEAN_MOTION_DDOT = .43292E-3

CCSDS_OMM_VERS = 2.0
CREATION_DATE  = 
ORIGINATOR     = 

OBJECT_NAME    = STARLINK-36803
OBJECT_ID      = 2026-035Q
CENTER_NAME    = EARTH
REF_FRAME      = TEME
TIME_SYSTEM    = UTC
MEAN_ELEMENT_THEORY = SGP/SGP4

EPOCH          = 2026-03-05T16:00:00.999936
MEAN_MOTION    = 15.97322605
ECCENTRICITY   = .0001295
INCLINATION    = 97.2735
RA_OF_ASC_NODE = 356.7129
ARG_OF_PERICENTER = 100.3433
MEAN_ANOMALY   = 128.2259

EPHEMERIS_TYPE = 0
CLASSIFICATION_TYPE = U
NORAD_CAT_ID   = 67893
ELEMENT_SET_NO = 999
REV_AT_EPOCH   = 311
BSTAR          = -.24835E-2
MEAN_MOTION_DOT = -.1080334E-1
MEAN_MOTION_DDOT = .36722E-3

CCSDS_OMM_VERS = 2.0
CREATION_DATE  = 
ORIGINATOR     = 

OBJECT_NAME    = STARLINK-36846
OBJECT_ID      = 2026-035R
CENTER_NAME    = EARTH
REF_FRAME      = TEME
TIME_SYSTEM    = UTC
MEAN_ELEMENT_THEORY = SGP/SGP4

EPOCH          = 2026-03-05T16:00:00.999936
MEAN_MOTION    = 15.97469544
ECCENTRICITY   = .0001468
INCLINATION    = 97.2731
RA_OF_ASC_NODE = 356.7171
ARG_OF_PERICENTER = 109.6789
MEAN_ANOMALY   = 128.9470

EPHEMERIS_TYPE = 0
CLASSIFICATION_TYPE = U
NORAD_CAT_ID   = 67894
ELEMENT_SET_NO = 999
REV_AT_EPOCH   = 311
BSTAR          = -.26054E-2
MEAN_MOTION_DOT = -.1141989E-1
MEAN_MOTION_DDOT = .40761E-3

CCSDS_OMM_VERS = 2.0
CREATION_DATE  = 
ORIGINATOR     = 

OBJECT_NAME    = STARLINK-36866
OBJECT_ID      = 2026-035S
CENTER_NAME    = EARTH
REF_FRAME      = TEME
TIME_SYSTEM    = UTC
MEAN_ELEMENT_THEORY = SGP/SGP4

EPOCH          = 2026-03-05T16:00:00.999936
MEAN_MOTION    = 15.97526802
ECCENTRICITY   = .0001213
INCLINATION    = 97.2731
RA_OF_ASC_NODE = 356.7187
ARG_OF_PERICENTER = 82.7262
MEAN_ANOMALY   = 160.3239

EPHEMERIS_TYPE = 0
CLASSIFICATION_TYPE = U
NORAD_CAT_ID   = 67895
ELEMENT_SET_NO = 999
REV_AT_EPOCH   = 311
BSTAR          = -.25865E-2
MEAN_MOTION_DOT = -.1137254E-1
MEAN_MOTION_DDOT = .40475E-3

CCSDS_OMM_VERS = 2.0
CREATION_DATE  = 
ORIGINATOR     = 

OBJECT_NAME    = STARLINK-36877
OBJECT_ID      = 2026-035T
CENTER_NAME    = EARTH
REF_FRAME      = TEME
TIME_SYSTEM    = UTC
MEAN_ELEMENT_THEORY = SGP/SGP4

EPOCH          = 2026-03-05T16:00:00.999936
MEAN_MOTION    = 15.97402492
ECCENTRICITY   = .000133
INCLINATION    = 97.2731
RA_OF_ASC_NODE = 356.7149
ARG_OF_PERICENTER = 97.4342
MEAN_ANOMALY   = 136.3606

EPHEMERIS_TYPE = 0
CLASSIFICATION_TYPE = U
NORAD_CAT_ID   = 67896
ELEMENT_SET_NO = 999
REV_AT_EPOCH   = 311
BSTAR          = -.2582E-2
MEAN_MOTION_DOT = -.1127665E-1
MEAN_MOTION_DDOT = .39791E-3

CCSDS_OMM_VERS = 2.0
CREATION_DATE  = 
ORIGINATOR     = 

OBJECT_NAME    = STARLINK-36870
OBJECT_ID      = 2026-035U
CENTER_NAME    = EARTH
REF_FRAME      = TEME
TIME_SYSTEM    = UTC
MEAN_ELEMENT_THEORY = SGP/SGP4

EPOCH          = 2026-03-05T16:00:00.999936
MEAN_MOTION    = 15.97608553
ECCENTRICITY   = .0001292
INCLINATION    = 97.2727
RA_OF_ASC_NODE = 356.7204
ARG_OF_PERICENTER = 94.0085
MEAN_ANOMALY   = 154.0335

EPHEMERIS_TYPE = 0
CLASSIFICATION_TYPE = U
NORAD_CAT_ID   = 67897
ELEMENT_SET_NO = 999
REV_AT_EPOCH   = 311
BSTAR          = -.26515E-2
MEAN_MOTION_DOT = -.1170767E-1
MEAN_MOTION_DDOT = .42747E-3

CCSDS_OMM_VERS = 2.0
CREATION_DATE  = 
ORIGINATOR     = 

OBJECT_NAME    = STARLINK-36810
OBJECT_ID      = 2026-035V
CENTER_NAME    = EARTH
REF_FRAME      = TEME
TIME_SYSTEM    = UTC
MEAN_ELEMENT_THEORY = SGP/SGP4

EPOCH          = 2026-03-05T16:00:00.999936
MEAN_MOTION    = 15.97678304
ECCENTRICITY   = .0001174
INCLINATION    = 97.2727
RA_OF_ASC_NODE = 356.7220
ARG_OF_PERICENTER = 91.2634
MEAN_ANOMALY   = 160.8209

EPHEMERIS_TYPE = 0
CLASSIFICATION_TYPE = U
NORAD_CAT_ID   = 67898
ELEMENT_SET_NO = 999
REV_AT_EPOCH   = 311
BSTAR          = -.26481E-2
MEAN_MOTION_DOT = -.1173714E-1
MEAN_MOTION_DDOT = .42979E-3

CCSDS_OMM_VERS = 2.0
CREATION_DATE  = 
ORIGINATOR     = 

OBJECT_NAME    = STARLINK-36878
OBJECT_ID      = 2026-035W
CENTER_NAME    = EARTH
REF_FRAME      = TEME
TIME_SYSTEM    = UTC
MEAN_ELEMENT_THEORY = SGP/SGP4

EPOCH          = 2026-03-05T16:00:00.999936
MEAN_MOTION    = 15.97813484
ECCENTRICITY   = .0001246
INCLINATION    = 97.2725
RA_OF_ASC_NODE = 356.7256
ARG_OF_PERICENTER = 104.3602
MEAN_ANOMALY   = 155.7616

EPHEMERIS_TYPE = 0
CLASSIFICATION_TYPE = U
NORAD_CAT_ID   = 67899
ELEMENT_SET_NO = 999
REV_AT_EPOCH   = 311
BSTAR          = -.26218E-2
MEAN_MOTION_DOT = -.1170753E-1
MEAN_MOTION_DDOT = .42841E-3

CCSDS_OMM_VERS = 2.0
CREATION_DATE  = 
ORIGINATOR     = 

OBJECT_NAME    = STARLINK-36361
OBJECT_ID      = 2026-035X
CENTER_NAME    = EARTH
REF_FRAME      = TEME
TIME_SYSTEM    = UTC
MEAN_ELEMENT_THEORY = SGP/SGP4

EPOCH          = 2026-03-05T16:00:00.999936
MEAN_MOTION    = 15.97900830
ECCENTRICITY   = .000127
INCLINATION    = 97.2725
RA_OF_ASC_NODE = 356.7272
ARG_OF_PERICENTER = 111.8889
MEAN_ANOMALY   = 152.5910

EPHEMERIS_TYPE = 0
CLASSIFICATION_TYPE = U
NORAD_CAT_ID   = 67900
ELEMENT_SET_NO = 999
REV_AT_EPOCH   = 311
BSTAR          = -.26247E-2
MEAN_MOTION_DOT = -.1177655E-1
MEAN_MOTION_DDOT = .4335E-3

CCSDS_OMM_VERS = 2.0
CREATION_DATE  = 
ORIGINATOR     = 

OBJECT_NAME    = STARLINK-36336
OBJECT_ID      = 2026-035Y
CENTER_NAME    = EARTH
REF_FRAME      = TEME
TIME_SYSTEM    = UTC
MEAN_ELEMENT_THEORY = SGP/SGP4

EPOCH          = 2026-03-05T16:00:00.999936
MEAN_MOTION    = 15.98120119
ECCENTRICITY   = .0001158
INCLINATION    = 97.2733
RA_OF_ASC_NODE = 356.7332
ARG_OF_PERICENTER = 97.4448
MEAN_ANOMALY   = 180.2722

EPHEMERIS_TYPE = 0
CLASSIFICATION_TYPE = U
NORAD_CAT_ID   = 67901
ELEMENT_SET_NO = 999
REV_AT_EPOCH   = 315
BSTAR          = -.26241E-2
MEAN_MOTION_DOT = -.1191525E-1
MEAN_MOTION_DDOT = .44405E-3

CCSDS_OMM_VERS = 2.0
CREATION_DATE  = 
ORIGINATOR     = 

OBJECT_NAME    = STARLINK-36876
OBJECT_ID      = 2026-035Z
CENTER_NAME    = EARTH
REF_FRAME      = TEME
TIME_SYSTEM    = UTC
MEAN_ELEMENT_THEORY = SGP/SGP4

EPOCH          = 2026-03-05T16:00:00.999936
MEAN_MOTION    = 15.97967063
ECCENTRICITY   = .000122
INCLINATION    = 97.2732
RA_OF_ASC_NODE = 356.7298
ARG_OF_PERICENTER = 103.1495
MEAN_ANOMALY   = 165.1869

EPHEMERIS_TYPE = 0
CLASSIFICATION_TYPE = U
NORAD_CAT_ID   = 67902
ELEMENT_SET_NO = 999
REV_AT_EPOCH   = 311
BSTAR          = -.26305E-2
MEAN_MOTION_DOT = -.1184482E-1
MEAN_MOTION_DDOT = .43848E-3

CCSDS_OMM_VERS = 2.0
CREATION_DATE  = 
ORIGINATOR     = 

OBJECT_NAME    = STARLINK-36257
OBJECT_ID      = 2026-035AA
CENTER_NAME    = EARTH
REF_FRAME      = TEME
TIME_SYSTEM    = UTC
MEAN_ELEMENT_THEORY = SGP/SGP4

EPOCH          = 2026-03-05T16:00:00.999936
MEAN_MOTION    = 15.98034309
ECCENTRICITY   = .0001129
INCLINATION    = 97.2729
RA_OF_ASC_NODE = 356.7305
ARG_OF_PERICENTER = 89.8353
MEAN_ANOMALY   = 182.5464

EPHEMERIS_TYPE = 0
CLASSIFICATION_TYPE = U
NORAD_CAT_ID   = 67903
ELEMENT_SET_NO = 999
REV_AT_EPOCH   = 315
BSTAR          = -.25972E-2
MEAN_MOTION_DOT = -.1173898E-1
MEAN_MOTION_DDOT = .43158E-3

CCSDS_OMM_VERS = 2.0
CREATION_DATE  = 
ORIGINATOR     = 

OBJECT_NAME    = STARLINK-36814
OBJECT_ID      = 2026-036A
CENTER_NAME    = EARTH
REF_FRAME      = TEME
TIME_SYSTEM    = UTC
MEAN_ELEMENT_THEORY = SGP/SGP4

EPOCH          = 2026-03-05T16:00:00.999936
MEAN_MOTION    = 15.81983974
ECCENTRICITY   = .0002287
INCLINATION    = 42.9977
RA_OF_ASC_NODE = 274.4658
ARG_OF_PERICENTER = 267.8835
MEAN_ANOMALY   = 65.6405

EPHEMERIS_TYPE = 0
CLASSIFICATION_TYPE = U
NORAD_CAT_ID   = 67904
ELEMENT_SET_NO = 999
REV_AT_EPOCH   = 300
BSTAR          = .19683E-3
MEAN_MOTION_DOT = .41049E-3
MEAN_MOTION_DDOT = 0

CCSDS_OMM_VERS = 2.0
CREATION_DATE  = 
ORIGINATOR     = 

OBJECT_NAME    = STARLINK-36729
OBJECT_ID      = 2026-036B
CENTER_NAME    = EARTH
REF_FRAME      = TEME
TIME_SYSTEM    = UTC
MEAN_ELEMENT_THEORY = SGP/SGP4

EPOCH          = 2026-03-05T16:00:00.999936
MEAN_MOTION    = 15.82013170
ECCENTRICITY   = .0001778
INCLINATION    = 42.9977
RA_OF_ASC_NODE = 274.4540
ARG_OF_PERICENTER = 266.0958
MEAN_ANOMALY   = 71.6999

EPHEMERIS_TYPE = 0
CLASSIFICATION_TYPE = U
NORAD_CAT_ID   = 67905
ELEMENT_SET_NO = 999
REV_AT_EPOCH   = 300
BSTAR          = -.58342E-4
MEAN_MOTION_DOT = -.12799E-3
MEAN_MOTION_DDOT = 0

CCSDS_OMM_VERS = 2.0
CREATION_DATE  = 
ORIGINATOR     = 

OBJECT_NAME    = STARLINK-36763
OBJECT_ID      = 2026-036C
CENTER_NAME    = EARTH
REF_FRAME      = TEME
TIME_SYSTEM    = UTC
MEAN_ELEMENT_THEORY = SGP/SGP4

EPOCH          = 2026-03-05T16:00:00.999936
MEAN_MOTION    = 15.82007731
ECCENTRICITY   = .0001748
INCLINATION    = 42.9980
RA_OF_ASC_NODE = 274.4433
ARG_OF_PERICENTER = 244.7370
MEAN_ANOMALY   = 97.3329

EPHEMERIS_TYPE = 0
CLASSIFICATION_TYPE = U
NORAD_CAT_ID   = 67906
ELEMENT_SET_NO = 999
REV_AT_EPOCH   = 300
BSTAR          = .29453E-4
MEAN_MOTION_DOT = .567E-4
MEAN_MOTION_DDOT = 0

